{
  "type": "FeatureCollection",
  "features": [
    {
      "type": "Feature",
      "properties": {
        "norad_id": 30153,
        "name": "FENGYUN 1C DEB",
        "group": "fengyun-1c-debris",
        "lat": -79.43392691761103,
        "lon": 73.84843747754938,
        "alt_km": 996.348031622897,
        "timestamp": "2025-12-11T20:41:15.355258+00:00",
        "meta_object_name": "FENGYUN 1C DEB",
        "meta_object_id": "1999-025TJ",
        "meta_epoch": "2025-12-10T11:01:05.985120",
        "meta_mean_motion": 13.78759563,
        "meta_eccentricity": 0.02008249,
        "meta_inclination": 100.4668,
        "meta_ra_of_asc_node": 334.6074,
        "meta_arg_of_pericenter": 11.3974,
        "meta_mean_anomaly": 139.7419,
        "meta_ephemeris_type": 0,
        "meta_classification_type": "U",
        "meta_norad_cat_id": 30153,
        "meta_element_set_no": 999,
        "meta_rev_at_epoch": 94743,
        "meta_bstar": 0.0017988339,
        "meta_mean_motion_dot": 2.074e-05,
        "meta_mean_motion_ddot": 0,
        "tle_line1": "1 30153U 99025TJ  25344.45909705  .00002074  00000+0  17988-2 0  9991",
        "tle_line2": "2 30153 100.4668 334.6074 0200824  11.3974 139.7419 13.78759563947432"
      },
      "geometry": {
        "type": "Point",
        "coordinates": [
          73.84843747754938,
          -79.43392691761103
        ]
      }
    },
    {
      "type": "Feature",
      "properties": {
        "norad_id": 30154,
        "name": "FENGYUN 1C DEB",
        "group": "fengyun-1c-debris",
        "lat": 43.33089698369354,
        "lon": -144.2058675600202,
        "alt_km": 880.709851488029,
        "timestamp": "2025-12-11T20:41:15.355268+00:00",
        "meta_object_name": "FENGYUN 1C DEB",
        "meta_object_id": "1999-025TK",
        "meta_epoch": "2025-12-11T13:51:52.475616",
        "meta_mean_motion": 13.85981717,
        "meta_eccentricity": 0.01829017,
        "meta_inclination": 98.4497,
        "meta_ra_of_asc_node": 27.4764,
        "meta_arg_of_pericenter": 201.8867,
        "meta_mean_anomaly": 318.2894,
        "meta_ephemeris_type": 0,
        "meta_classification_type": "U",
        "meta_norad_cat_id": 30154,
        "meta_element_set_no": 999,
        "meta_rev_at_epoch": 94968,
        "meta_bstar": 0.0022765624,
        "meta_mean_motion_dot": 2.947e-05,
        "meta_mean_motion_ddot": 0,
        "tle_line1": "1 30154U 99025TK  25345.57769069  .00002947  00000+0  22766-2 0  9992",
        "tle_line2": "2 30154  98.4497  27.4764 0182901 201.8867 318.2894 13.85981717949680"
      },
      "geometry": {
        "type": "Point",
        "coordinates": [
          -144.2058675600202,
          43.33089698369354
        ]
      }
    },
    {
      "type": "Feature",
      "properties": {
        "norad_id": 30155,
        "name": "FENGYUN 1C DEB",
        "group": "fengyun-1c-debris",
        "lat": 36.492292840910075,
        "lon": 52.0601305561706,
        "alt_km": 868.8422203987202,
        "timestamp": "2025-12-11T20:41:15.355277+00:00",
        "meta_object_name": "FENGYUN 1C DEB",
        "meta_object_id": "1999-025TL",
        "meta_epoch": "2025-12-10T21:47:33.055008",
        "meta_mean_motion": 13.73790068,
        "meta_eccentricity": 0.0241802,
        "meta_inclination": 99.7513,
        "meta_ra_of_asc_node": 58.3952,
        "meta_arg_of_pericenter": 348.5854,
        "meta_mean_anomaly": 10.9868,
        "meta_ephemeris_type": 0,
        "meta_classification_type": "U",
        "meta_norad_cat_id": 30155,
        "meta_element_set_no": 999,
        "meta_rev_at_epoch": 93839,
        "meta_bstar": 0.0023466,
        "meta_mean_motion_dot": 2.664e-05,
        "meta_mean_motion_ddot": 0,
        "tle_line1": "1 30155U 99025TL  25344.90802147  .00002664  00000+0  23466-2 0  9998",
        "tle_line2": "2 30155  99.7513  58.3952 0241802 348.5854  10.9868 13.73790068938394"
      },
      "geometry": {
        "type": "Point",
        "coordinates": [
          52.0601305561706,
          36.492292840910075
        ]
      }
    },
    {
      "type": "Feature",
      "properties": {
        "norad_id": 30156,
        "name": "FENGYUN 1C DEB",
        "group": "fengyun-1c-debris",
        "lat": -80.55920404510809,
        "lon": 62.11274435874063,
        "alt_km": 822.0131109873555,
        "timestamp": "2025-12-11T20:41:15.355287+00:00",
        "meta_object_name": "FENGYUN 1C DEB",
        "meta_object_id": "1999-025TM",
        "meta_epoch": "2025-12-11T11:19:32.419200",
        "meta_mean_motion": 13.80806827,
        "meta_eccentricity": 0.01994269,
        "meta_inclination": 98.9188,
        "meta_ra_of_asc_node": 312.5411,
        "meta_arg_of_pericenter": 266.3188,
        "meta_mean_anomaly": 222.511,
        "meta_ephemeris_type": 0,
        "meta_classification_type": "U",
        "meta_norad_cat_id": 30156,
        "meta_element_set_no": 999,
        "meta_rev_at_epoch": 94673,
        "meta_bstar": 0.0023952482,
        "meta_mean_motion_dot": 2.889e-05,
        "meta_mean_motion_ddot": 0,
        "tle_line1": "1 30156U 99025TM  25345.47190300  .00002889  00000+0  23952-2 0  9992",
        "tle_line2": "2 30156  98.9188 312.5411 0199426 266.3188 222.5110 13.80806827946737"
      },
      "geometry": {
        "type": "Point",
        "coordinates": [
          62.11274435874063,
          -80.55920404510809
        ]
      }
    },
    {
      "type": "Feature",
      "properties": {
        "norad_id": 30157,
        "name": "FENGYUN 1C DEB",
        "group": "fengyun-1c-debris",
        "lat": -18.380612633836993,
        "lon": 85.79288042724613,
        "alt_km": 768.6041235250705,
        "timestamp": "2025-12-11T20:41:15.355297+00:00",
        "meta_object_name": "FENGYUN 1C DEB",
        "meta_object_id": "1999-025TN",
        "meta_epoch": "2025-12-11T05:56:57.086016",
        "meta_mean_motion": 14.4506658,
        "meta_eccentricity": 0.00370611,
        "meta_inclination": 98.714,
        "meta_ra_of_asc_node": 82.2419,
        "meta_arg_of_pericenter": 197.3024,
        "meta_mean_anomaly": 191.0969,
        "meta_ephemeris_type": 0,
        "meta_classification_type": "U",
        "meta_norad_cat_id": 30157,
        "meta_element_set_no": 999,
        "meta_rev_at_epoch": 98051,
        "meta_bstar": 0.0044329564,
        "meta_mean_motion_dot": 0.00015607,
        "meta_mean_motion_ddot": 0,
        "tle_line1": "1 30157U 99025TN  25345.24788294  .00015607  00000+0  44330-2 0  9998",
        "tle_line2": "2 30157  98.7140  82.2419 0037061 197.3024 191.0969 14.45066580980513"
      },
      "geometry": {
        "type": "Point",
        "coordinates": [
          85.79288042724613,
          -18.380612633836993
        ]
      }
    },
    {
      "type": "Feature",
      "properties": {
        "norad_id": 30160,
        "name": "FENGYUN 1C DEB",
        "group": "fengyun-1c-debris",
        "lat": -7.2910632432843325,
        "lon": -64.31931067608927,
        "alt_km": 1286.449558641656,
        "timestamp": "2025-12-11T20:41:15.355307+00:00",
        "meta_object_name": "FENGYUN 1C DEB",
        "meta_object_id": "1999-025TR",
        "meta_epoch": "2025-12-11T10:36:24.753888",
        "meta_mean_motion": 13.42887156,
        "meta_eccentricity": 0.03427025,
        "meta_inclination": 98.8859,
        "meta_ra_of_asc_node": 294.1628,
        "meta_arg_of_pericenter": 131.0906,
        "meta_mean_anomaly": 354.8231,
        "meta_ephemeris_type": 0,
        "meta_classification_type": "U",
        "meta_norad_cat_id": 30160,
        "meta_element_set_no": 999,
        "meta_rev_at_epoch": 92396,
        "meta_bstar": 0.0011374021,
        "meta_mean_motion_dot": 8.83e-06,
        "meta_mean_motion_ddot": 0,
        "tle_line1": "1 30160U 99025TR  25345.44195317  .00000883  00000+0  11374-2 0  9994",
        "tle_line2": "2 30160  98.8859 294.1628 0342702 131.0906 354.8231 13.42887156923969"
      },
      "geometry": {
        "type": "Point",
        "coordinates": [
          -64.31931067608927,
          -7.2910632432843325
        ]
      }
    },
    {
      "type": "Feature",
      "properties": {
        "norad_id": 30161,
        "name": "FENGYUN 1C DEB",
        "group": "fengyun-1c-debris",
        "lat": -66.01330841092422,
        "lon": 128.56351338667915,
        "alt_km": 840.5539747853036,
        "timestamp": "2025-12-11T20:41:15.355317+00:00",
        "meta_object_name": "FENGYUN 1C DEB",
        "meta_object_id": "1999-025TS",
        "meta_epoch": "2025-12-11T11:24:06.198336",
        "meta_mean_motion": 13.49715396,
        "meta_eccentricity": 0.03283148,
        "meta_inclination": 100.506,
        "meta_ra_of_asc_node": 332.8026,
        "meta_arg_of_pericenter": 260.9449,
        "meta_mean_anomaly": 269.0116,
        "meta_ephemeris_type": 0,
        "meta_classification_type": "U",
        "meta_norad_cat_id": 30161,
        "meta_element_set_no": 999,
        "meta_rev_at_epoch": 92542,
        "meta_bstar": 0.0029699475,
        "meta_mean_motion_dot": 2.576e-05,
        "meta_mean_motion_ddot": 0,
        "tle_line1": "1 30161U 99025TS  25345.47507174  .00002576  00000+0  29699-2 0  9996",
        "tle_line2": "2 30161 100.5060 332.8026 0328314 260.9449 269.0116 13.49715396925429"
      },
      "geometry": {
        "type": "Point",
        "coordinates": [
          128.56351338667915,
          -66.01330841092422
        ]
      }
    }
  ]
}